AEROCUBE 6A             
1 40045U 14033AM  24228.53160724  .00013407  00000+0  15546-2 0  9997
2 40045  97.6737  39.7149 0050353  86.9414 273.7561 14.84629090546598
AEROCUBE 6B             
1 40046U 14033AN  24228.53197012  .00014237  00000+0  16163-2 0  9996
2 40046  97.6701  38.4736 0048945  82.1173 278.5595 14.85529189546658
CANX-4                  
1 40055U 14034C   24228.62355383  .00003842  00000+0  53461-3 0  9997
2 40055  98.3917  65.8492 0013472   6.8440 353.2951 14.78384728545369
CANX-5                  
1 40056U 14034D   24228.42529787  .00003965  00000+0  55134-3 0  9992
2 40056  98.3922  65.6493 0013484   7.6643 352.4770 14.78392845536114
UKUBE-1                 
1 40074U 14037F   24228.86082188  .00015309  00000+0  13972-2 0  9990
2 40074  98.3412 162.5024 0002709 205.9047 154.2037 14.95176125547693
BRITE-PL2 (HEWELIUSZ)   
1 40119U 14049B   24228.28296935  .00006611  00000+0  70027-3 0  9997
2 40119  97.8843 327.7061 0016060 165.9144 194.2524 14.89372338541370
AEROCUBE 5C             
1 40965U 15058B   24228.26763540  .00011003  00000+0  97347-3 0  9991
2 40965  64.7687 180.1842 0192266 290.2908  67.7627 14.83519866265799
AEROCUBE 7              
1 40966U 15058C   24228.20468803  .00013418  00000+0  11389-2 0  9993
2 40966  64.7665 173.5794 0186808 289.9098  68.1970 14.85582956265897
FOX-1A (AO-85)          
1 40967U 15058D   24228.41963790  .00010380  00000+0  93767-3 0  9998
2 40967  64.7762 193.8018 0191352 286.0643  71.9469 14.82914073 13773
SINOD-D 1               
1 40968U 15058E   24228.10688683  .00013006  00000+0  11239-2 0  9991
2 40968  64.7764 186.9477 0185581 285.1129  72.9516 14.85099749 16565
SNAP-3 ALICE            
1 40970U 15058G   24228.47874435  .00029459  00000+0  19131-2 0  9994
2 40970  64.7701 139.4103 0153632 282.6412  75.7564 14.98669616 14660
LMRST-SAT               
1 40971U 15058H   24228.59917332  .00010412  00000+0  93820-3 0  9999
2 40971  64.7753 188.7889 0192511 287.3998  70.6141 14.82857661 13808
SNAP-3 EDDIE            
1 40972U 15058J   24228.14106402  .00029711  00000+0  19064-2 0  9998
2 40972  64.7677 133.7659 0153966 283.6454  74.7557 14.99048340 16719
PROPCUBE 3              
1 40973U 15058K   24228.21370193  .00012531  00000+0  10811-2 0  9990
2 40973  64.7701 177.2331 0188809 288.8306  69.2409 14.84783617 14793
BISONSAT                
1 40974U 15058L   24228.16192054  .00021429  00000+0  15662-2 0  9998
2 40974  64.7675 149.5703 0168515 286.3791  71.8853 14.92921992 14568
SNAP-3 JIMI             
1 40975U 15058M   24227.23076691  .00017543  00000+0  14098-2 0  9998
2 40975  64.7686 167.4094 0180264 288.0731  70.0815 14.88216556 13668
PROPCUBE 1 (FLORA)      
1 40976U 15058N   24228.30215720  .00011090  00000+0  10370-2 0  9996
2 40976  64.7743 205.4508 0190816 288.7674  69.2815 14.81664254 16559
SINOD-D 3               
1 40977U 15058P   24228.27736067  .00013521  00000+0  12108-2 0  9997
2 40977  64.7735 198.2538 0185029 287.9415  70.1598 14.83840885 14798
HORYU-4                 
1 41340U 16012D   24228.54140110  .00027040  00000+0  12678-2 0  9994
2 41340  31.0031 308.2536 0009098 209.5286 150.4841 15.18486261467177
RAVAN                   
1 41849U 16067B   24228.56046193  .00019928  00000+0  10441-2 0  9998
2 41849  98.0669  49.8132 0012639 182.4307 177.6864 15.15771207424970
CELTEE 1                
1 41850U 16067C   24228.39240162  .00011592  00000+0  76538-3 0  9992
2 41850  98.1068  40.9894 0001288  49.4237 310.7101 15.07605759424349
OPTICUBE 04             
1 41851U 16067D   24228.73712014  .00007716  00000+0  57091-3 0  9997
2 41851  98.0829  36.2073 0017276 213.2334 146.7806 15.03356547424189
AEROCUBE 8D             
1 41852U 16067E   24228.39714192  .00014005  00000+0  88868-3 0  9994
2 41852  98.1116  40.9071 0003911 267.5443  92.5336 15.09013620424324
AEROCUBE 8C             
1 41853U 16067F   24228.41245447  .00015472  00000+0  98147-3 0  9990
2 41853  98.0934  39.3556 0007391 193.3400 166.7633 15.08984421424315
PROMETHEUS 2-1          
1 41854U 16067G   24228.41510331  .00034678  00000+0  16186-2 0  9999
2 41854  98.1019  47.7416 0011779 212.6619 147.3887 15.19693979424729
PROMETHEUS 2-3          
1 41855U 16067H   24228.54450861  .00035388  00000+0  16539-2 0  9996
2 41855  98.0950  47.3112 0009969 222.2449 137.8017 15.19661504424748
AALTO-1                 
1 42775U 17036L   24228.35155711  .00497955  98993-4  14796-2 0  9998
2 42775  97.0907 259.4976 0003298 205.0583 155.0533 15.92468712398430
CORVUS BC2              
1 42846U 17042X   24228.77232583  .00008171  00000+0  68884-3 0  9996
2 42846  97.3744  50.5827 0007848 210.8447 149.2317 14.98391958386360
CORVUS BC1              
1 42847U 17042Y   24228.05951764  .00008579  00000+0  72038-3 0  9995
2 42847  97.3753  50.3185 0007024 204.1552 155.9343 14.98535895386278
MIRATA                  
1 43015U 17073C   24228.74838725  .00044688  00000+0  19328-2 0  9997
2 43015  97.5871 112.8945 0162456  57.5580 304.1243 15.11107454365310
MAKERSAT 0              
1 43016U 17073D   24228.56471230  .00026504  00000+0  14328-2 0  9994
2 43016  97.5747 105.9423 0191530  81.8548 280.4352 15.00215652364815
GOMX-4B                 
1 43196U 18015E   24228.56119023  .00169263  00000+0  10998-2 0  9998
2 43196  97.6049  47.1795 0003993  94.1548 266.0173 15.75463852364833
GOMX-4A                 
1 43197U 18015F   24228.95842318  .01884660  25335-5  10545-2 0  9990
2 43197  97.5787  54.5762 0005875 272.9608 228.5829 16.19323422365369
SIRION PATHFINDER-2     
1 43759U 18099B   24228.87165721  .00010641  00000+0  77860-3 0  9992
2 43759  97.5256 283.3550 0013059  87.3789 272.8932 15.03700913311478
CORVUS BC4              
1 43767U 18099K   24228.73375384  .00009752  00000+0  72885-3 0  9997
2 43767  97.5099 280.2502 0012334 133.6912 226.5338 15.02926634311333
MOVE-II                 
1 43780U 18099Y   24228.57895926  .00048340  00000+0  22833-2 0  9996
2 43780  97.5172 291.1239 0007279 131.8878 228.2979 15.19232130311936
SPACEBEE-7              
1 43816U 18099BL  24228.14646050  .00029248  00000+0  16111-2 0  9999
2 43816  97.5441 291.1979 0010441  89.2045 271.0383 15.13920521311323
SPACEBEE-6              
1 43818U 18099BN  24228.43764453  .00076676  00000+0  26945-2 0  9994
2 43818  97.5364 297.9639 0007200  89.2481 270.9584 15.29052057311945
SHIELDS 1               
1 43850U 18104B   24228.75687686  .00023824  00000+0  59619-3 0  9996
2 43850  85.0195 242.6104 0010025 190.8264 169.2774 15.39915121315324
SONATE                  
1 44400U 19038Q   24228.56523177  .00039180  00000+0  10600-2 0  9996
2 44400  97.7138 225.4497 0012593 246.9422 113.0495 15.37520317283191
LUCKY-7                 
1 44406U 19038W   24227.96744217  .00076459  00000+0  13181-2 0  9992
2 44406  97.7022 229.8987 0010250 216.9509 143.1037 15.50725006283454
DUCHIFAT-3              
1 44854U 19089C   24226.83012845  .00036056  00000+0  16880-2 0  9993
2 44854  36.9562  58.4635 0005572 241.9327 118.0858 15.18849547257036
M2 PATHFINDER           
1 45727U 20037E   24228.39086914  .00007214  00000+0  61863-3 0  9995
2 45727  97.7818  44.5451 0009698 290.0781  69.9397 14.97780373224807
NETSAT-4                
1 46504U 20068U   24228.60997866  .00017832  00000+0  90853-3 0  9992
2 46504  97.8087 187.4321 0011246 147.5256 212.6670 15.16791518213172
NETSAT-3                
1 46505U 20068V   24228.61808296  .00017723  00000+0  91930-3 0  9998
2 46505  97.8062 186.8708 0010263 153.9319 206.2432 15.16170263213169
NETSAT-1                
1 46506U 20068W   24228.60566189  .00014898  00000+0  81675-3 0  9995
2 46506  97.8085 186.1826 0008682 162.2185 197.9352 15.14258917213118
NETSAT-2                
1 46507U 20068X   24228.89332403  .00017994  00000+0  91819-3 0  9998
2 46507  97.8072 187.3370 0007884 162.7879 197.3622 15.16763095213169
WILDTRACKCUBE-SIMBA     
1 47941U 21022K   24226.81669834  .00031047  00000+0  12928-2 0  9991
2 47941  97.4520 123.1242 0012478 307.4081  52.6019 15.23608710187231
GRBALPHA                
1 47959U 21022AD  24226.81439432  .00043583  00000+0  15374-2 0  9995
2 47959  97.4519 125.3855 0010248 296.8201  63.1990 15.29070746186209
BCCSAT-1                
1 48041U 21022AK  24228.81512941  .00262761  00000+0  24973-2 0  9993
2 48041  97.4499 138.5430 0006992 160.5772 199.5756 15.66010468187206
BEESAT-8                
1 48085U 21022AP  24227.71028403  .00051814  00000+0  14199-2 0  9998
2 48085  97.4712 130.5475 0007566 272.3060  87.7318 15.37105371186851
LEDSAT                  
1 49069U 21073D   24228.20269594  .00035164  00000+0  12957-2 0  9990
2 49069  97.4340 299.0244 0018913  77.9666 282.3691 15.27566995165457
ROBUSTA-1F (MTCUBE 2)   
1 53109U 22080E   24226.21299902 -.00000003  00000+0  00000+0 0  9992
2 53109  70.1254 172.2951 0007755  75.5189 284.6331  6.42584271 48823
SITRO-AIS 5 (KATYS)     
1 57176U 23091L   24226.84645699  .00018305  00000+0  11328-2 0  9991
2 57176  97.6079 278.5653 0015779 284.5459  75.4019 15.09759688 62190
SITRO-AIS 6 (CHIRKIN)   
1 57192U 23091AC  24226.82940255  .00018717  00000+0  11565-2 0  9993
2 57192  97.6084 278.5765 0015637 284.3183  75.6310 15.09814407 62190
SITRO-AIS 8 (ANOKHIN)   
1 57193U 23091AD  24226.84994548  .00019152  00000+0  11701-2 0  9996
2 57193  97.6077 278.6941 0015267 285.0690  74.8850 15.10224259 62204
SITRO-AIS 7 (FARTUSHNIY)
1 57194U 23091AE  24226.83627725  .00018508  00000+0  11456-2 0  9997
2 57194  97.6078 278.5600 0015531 284.9963  74.9547 15.09753499 62195
SITRO-AIS 10 (BURDAEV)  
1 57199U 23091AK  24226.88199042  .00020830  00000+0  12079-2 0  9996
2 57199  97.6100 279.8026 0010434 270.7369  89.2666 15.12151786 62277
